JILIN-1 GAOFEN 3A       
1 44312U 19032C   26168.93247338  .00009643  00000+0  30921-3 0  9990
2 44312  44.9754 352.8347 0006415 299.5235  60.5009 15.32643163387958
WT 1B                   
1 44316U 19032G   26169.11525829  .00007817  00000+0  29806-3 0  9990
2 44316  44.9724  55.8731 0009938 253.4747 106.5043 15.27196841387225
PROX-1                  
1 44339U 19036A   26168.92751771  .00010882  00000+0  10554-2 0  9999
2 44339  23.9948 109.3054 0005742  44.3809 315.7150 14.90623480373583
NPSAT1                  
1 44340U 19036B   26169.20015043  .00003585  00000+0  48987-3 0  9992
2 44340  23.9980 211.1650 0007119 218.5635 141.4352 14.74585000372648
FORMOSAT 7-3            
1 44343U 19036E   26169.30729954  .00002989  00000+0  15942-3 0  9991
2 44343  23.9974 170.8310 0000313 295.9621  64.0851 15.09804660383417
FORMOSAT 7-1            
1 44349U 19036L   26168.91373732  .00002274  00000+0  16935-3 0  9992
2 44349  23.9987  27.4949 0000746 163.4061 196.6465 14.96508462384767
FORMOSAT 7-4            
1 44350U 19036M   26169.13624655  .00002180  00000+0  16129-3 0  9993
2 44350  23.9984  88.0991 0001045 187.2167 172.8319 14.96501319384218
FORMOSAT 7-2            
1 44351U 19036N   26169.02523322  .00002008  00000+0  14649-3 0  9995
2 44351  23.9964 143.1646 0000662 170.5801 189.4713 14.96501020383716
FORMOSAT 7-6            
1 44353U 19036Q   26167.75812536  .00002328  00000+0  17396-3 0  9990
2 44353  23.9992 332.5244 0001434  89.3524 270.7141 14.96510275381757
FORMOSAT 7-5            
1 44358U 19036V   26169.26894840  .00002093  00000+0  15376-3 0  9996
2 44358  23.9980 261.0904 0000503 123.8688 236.1861 14.96522050382513
METEOR-M2 2             
1 44387U 19038A   26169.22811808  .00000427  00000+0  20448-3 0  9994
2 44387  98.9142 156.5293 0002053  45.8699 314.2648 14.24367467361443
GLOBAL-4                
1 44499U 19054E   26168.58855740  .00040997  00000+0  41794-3 0  9990
2 44499  45.0041 234.0849 0005943 338.2074  21.8570 15.64447706380428
ZY-1 02D                
1 44528U 19059A   26168.55710100  .00000375  00000+0  14508-3 0  9994
2 44528  98.4516 230.0275 0002726  63.6467 296.4998 14.35552140354397
TAURUS-1 (JINNIUZUO 1)  
1 44530U 19059C   26169.26232289  .00004399  00000+0  70761-3 0  9996
2 44530  98.6416 334.1562 0007421 312.6932  47.3648 14.72103226358800
ZHUHAI-1 03B            
1 44536U 19060C   26169.27792640  .00024485  00000+0  37744-3 0  9999
2 44536  97.5533 327.1017 0007413 313.4305  46.6331 15.54138363376492
ZHUHAI-1 03D            
1 44538U 19060E   26169.25682648  .00028132  00000+0  50575-3 0  9995
2 44538  97.5400 319.1916 0006625 296.1334  63.9235 15.49802041376242
ZHUHAI-1 03E            
1 44539U 19060F   26169.34737300  .00013470  00000+0  32742-3 0  9997
2 44539  97.5619 319.3342 0005830  29.2232 330.9339 15.41096507375941
GAOFEN-7                
1 44703U 19072A   26169.31717493  .00003160  00000+0  14376-3 0  9999
2 44703  97.2427 230.7421 0018733  37.6833 322.5712 15.21270654367812
JILIN-1 GAOFEN 2A       
1 44777U 19075A   26169.30522216  .00011509  00000+0  29666-3 0  9993
2 44777  97.4965 253.1212 0007436  84.4542 275.7551 15.39335253365054
NINGXIA-1 1             
1 44779U 19076A   26169.32170019 -.00000092  00000+0  24522-4 0  9991
2 44779  45.0036 174.7818 0010703 168.9716 191.1354 14.02038320338018
NINGXIA-1 5             
1 44783U 19076E   26169.33495398 -.00000187  00000+0 -37252-4 0  9997
2 44783  45.0029 174.0632 0010110 158.7394 201.3862 14.02085856337937
KL-ALPHA A              
1 44785U 19077A   26169.22704556  .00000084  00000+0  10158-3 0  9996
2 44785  88.9247 222.4511 0013272 103.4212 256.8422 13.56043303325875
CARTOSAT-3              
1 44804U 19081A   26169.27699797  .00001149  00000+0  57576-4 0  9997
2 44804  97.4300 231.1267 0013383 144.6779 215.5345 15.19285619363636
JILIN-1 GAOFEN 2B       
1 44836U 19086A   26169.26581357  .00004665  00000+0  21488-3 0  9996
2 44836  97.4880 241.2499 0012805 320.1712  39.8582 15.20720635360652
TIANQIN 1 (CAS-6)       
1 44879U 19093A   26169.29365084  .00001509  00000+0  14160-3 0  9994
2 44879  97.7807 253.1252 0012079  53.8459 306.3878 14.95436354352217
ETRSS-1                 
1 44880U 19093B   26169.30015271  .00001803  00000+0  16636-3 0  9995
2 44880  97.7822 253.5918 0012193  54.7452 305.4908 14.95868741352223
TIANYAN 01              
1 44881U 19093C   26169.25637853  .00000177  00000+0  26007-4 0  9993
2 44881  97.7534 241.4624 0015095  83.4988 276.7946 14.86519812351572
TIANYAN 02              
1 44882U 19093D   26169.24960399  .00004649  00000+0  32930-3 0  9996
2 44882  97.7941 264.0499 0014038  26.8393 333.3557 15.05238461352774
