OBJECT_NAME,OBJECT_ID,EPOCH,MEAN_MOTION,ECCENTRICITY,INCLINATION,RA_OF_ASC_NODE,ARG_OF_PERICENTER,MEAN_ANOMALY,EPHEMERIS_TYPE,CLASSIFICATION_TYPE,NORAD_CAT_ID,ELEMENT_SET_NO,REV_AT_EPOCH,BSTAR,MEAN_MOTION_DOT,MEAN_MOTION_DDOT
JILIN-1 GAOFEN 3A,2019-032C,2026-06-17T22:22:45.700032,15.32643163,.00064153,44.9754,352.8347,299.5235,60.5009,0,U,44312,999,38795,.30921219E-3,.9643E-4,0
WT 1B,2019-032G,2026-06-18T02:45:58.316256,15.27196841,.00099388,44.9724,55.8731,253.4747,106.5043,0,U,44316,999,38722,.29805917E-3,.7817E-4,0
PROX-1,2019-036A,2026-06-17T22:15:37.530144,14.90623480,.00057424,23.9948,109.3054,44.3809,315.7150,0,U,44339,999,37358,.10553694E-2,.10882E-3,0
NPSAT1,2019-036B,2026-06-18T04:48:12.997152,14.74585000,.00071192,23.9980,211.1650,218.5635,141.4352,0,U,44340,999,37264,.48986952E-3,.3585E-4,0
FORMOSAT 7-3,2019-036E,2026-06-18T07:22:30.680256,15.09804660,.00003137,23.9974,170.8310,295.9621,64.0851,0,U,44343,999,38341,.15942306E-3,.2989E-4,0
FORMOSAT 7-1,2019-036L,2026-06-17T21:55:46.904448,14.96508462,.00007465,23.9987,27.4949,163.4061,196.6465,0,U,44349,999,38476,.16935154E-3,.2274E-4,0
FORMOSAT 7-4,2019-036M,2026-06-18T03:16:11.701920,14.96501319,.00010458,23.9984,88.0991,187.2167,172.8319,0,U,44350,999,38421,.1612902E-3,.218E-4,0
FORMOSAT 7-2,2019-036N,2026-06-18T00:36:20.150208,14.96501020,.00006628,23.9964,143.1646,170.5801,189.4713,0,U,44351,999,38371,.14648673E-3,.2008E-4,0
FORMOSAT 7-6,2019-036Q,2026-06-16T18:11:42.031104,14.96510275,.00014343,23.9992,332.5244,89.3524,270.7141,0,U,44353,999,38175,.17396007E-3,.2328E-4,0
FORMOSAT 7-5,2019-036V,2026-06-18T06:27:17.141760,14.96522050,.00005035,23.9980,261.0904,123.8688,236.1861,0,U,44358,999,38251,.15376272E-3,.2093E-4,0
METEOR-M2 2,2019-038A,2026-06-18T05:28:29.402112,14.24367467,.00020531,98.9142,156.5293,45.8699,314.2648,0,U,44387,999,36144,.20448063E-3,.427E-5,0
GLOBAL-4,2019-054E,2026-06-17T14:07:31.359360,15.64447706,.0005943,45.0041,234.0849,338.2074,21.8570,0,U,44499,999,38042,.41794298E-3,.40997E-3,0
ZY-1 02D,2019-059A,2026-06-17T13:22:13.526400,14.35552140,.0002726,98.4516,230.0275,63.6467,296.4998,0,U,44528,999,35439,.14508E-3,.375E-5,0
TAURUS-1 (JINNIUZUO 1),2019-059C,2026-06-18T06:17:44.697696,14.72103226,.00074211,98.6416,334.1562,312.6932,47.3648,0,U,44530,999,35880,.70760794E-3,.4399E-4,0
ZHUHAI-1 03B,2019-060C,2026-06-18T06:40:12.840960,15.54138363,.00074136,97.5533,327.1017,313.4305,46.6331,0,U,44536,999,37649,.3774385E-3,.24485E-3,0
ZHUHAI-1 03D,2019-060E,2026-06-18T06:09:49.807872,15.49802041,.00066257,97.5400,319.1916,296.1334,63.9235,0,U,44538,999,37624,.50575385E-3,.28132E-3,0
ZHUHAI-1 03E,2019-060F,2026-06-18T08:20:13.027200,15.41096507,.00058306,97.5619,319.3342,29.2232,330.9339,0,U,44539,999,37594,.3274163E-3,.1347E-3,0
GAOFEN-7,2019-072A,2026-06-18T07:36:43.913952,15.21270654,.00187332,97.2427,230.7421,37.6833,322.5712,0,U,44703,999,36781,.14375812E-3,.316E-4,0
JILIN-1 GAOFEN 2A,2019-075A,2026-06-18T07:19:31.194624,15.39335253,.0007436,97.4965,253.1212,84.4542,275.7551,0,U,44777,999,36505,.29665663E-3,.11509E-3,0
NINGXIA-1 1,2019-076A,2026-06-18T07:43:14.896416,14.02038320,.0010703,45.0036,174.7818,168.9716,191.1354,0,U,44779,999,33801,.2452178E-4,-.92E-6,0
NINGXIA-1 5,2019-076E,2026-06-18T08:02:20.023872,14.02085856,.00101103,45.0029,174.0632,158.7394,201.3862,0,U,44783,999,33793,-.37251903E-4,-.187E-5,0
KL-ALPHA A,2019-077A,2026-06-18T05:26:56.736384,13.56043303,.00132723,88.9247,222.4511,103.4212,256.8422,0,U,44785,999,32587,.10157759E-3,.84E-6,0
CARTOSAT-3,2019-081A,2026-06-18T06:38:52.624608,15.19285619,.00133835,97.4300,231.1267,144.6779,215.5345,0,U,44804,999,36363,.57575978E-4,.1149E-4,0
JILIN-1 GAOFEN 2B,2019-086A,2026-06-18T06:22:46.292448,15.20720635,.00128051,97.4880,241.2499,320.1712,39.8582,0,U,44836,999,36065,.21487666E-3,.4665E-4,0
TIANQIN 1 (CAS-6),2019-093A,2026-06-18T07:02:51.432576,14.95436354,.00120798,97.7807,253.1252,53.8459,306.3878,0,U,44879,999,35221,.14159947E-3,.1509E-4,0
ETRSS-1,2019-093B,2026-06-18T07:12:13.194144,14.95868741,.00121932,97.7822,253.5918,54.7452,305.4908,0,U,44880,999,35222,.16636171E-3,.1803E-4,0
TIANYAN 01,2019-093C,2026-06-18T06:09:11.104992,14.86519812,.00150953,97.7534,241.4624,83.4988,276.7946,0,U,44881,999,35157,.26006731E-4,.177E-5,0
TIANYAN 02,2019-093D,2026-06-18T05:59:25.784736,15.05238461,.00140387,97.7941,264.0499,26.8393,333.3557,0,U,44882,999,35277,.32929891E-3,.4649E-4,0
